SMDC ONE 1.2            
1 38759U 12048B   26068.59359052  .00013943  00000+0  57078-3 0  9996
2 38759  64.6579 143.2061 0110458 207.1808 152.3511 15.19069434101016
STARLINK-35436          
1 65932U 25225Y   26068.52188878  .00032533  00000+0  11062-2 0  9997
2 65932  53.1603 166.3686 0000879 147.9088 212.1967 15.30187412 24389
