[{"OBJECT_NAME":"SMDC ONE 1.2","OBJECT_ID":"2012-048B","EPOCH":"2026-03-09T14:14:46.220928","MEAN_MOTION":15.19069434,"ECCENTRICITY":0.0110458,"INCLINATION":64.6579,"RA_OF_ASC_NODE":143.2061,"ARG_OF_PERICENTER":207.1808,"MEAN_ANOMALY":152.3511,"EPHEMERIS_TYPE":0,"CLASSIFICATION_TYPE":"U","NORAD_CAT_ID":38759,"ELEMENT_SET_NO":999,"REV_AT_EPOCH":10101,"BSTAR":0.00057078,"MEAN_MOTION_DOT":0.00013943,"MEAN_MOTION_DDOT":0},{"OBJECT_NAME":"STARLINK-35436","OBJECT_ID":"2025-225Y","EPOCH":"2026-03-09T12:31:31.190592","MEAN_MOTION":15.30187412,"ECCENTRICITY":8.792e-5,"INCLINATION":53.1603,"RA_OF_ASC_NODE":166.3686,"ARG_OF_PERICENTER":147.9088,"MEAN_ANOMALY":212.1967,"EPHEMERIS_TYPE":0,"CLASSIFICATION_TYPE":"U","NORAD_CAT_ID":65932,"ELEMENT_SET_NO":999,"REV_AT_EPOCH":2438,"BSTAR":0.001106171,"MEAN_MOTION_DOT":0.00032533,"MEAN_MOTION_DDOT":0}]
